#dP2024 11  5  0  0  0.00000000      96 __u+U IGS20 FIT  IAC
## 2339 172800.00000000   900.00000000 60619 0.0000000000000
+  131   C01C02C03C04C05C06C07C08C09C10C11C12C13C14C16C19C20
+        C21C22C23C24C25C26C27C28C29C30C32C33C34C35C36C37C38
+        C39C40C41C42C43C44C45C59C60C62E02E03E04E05E06E07E08
+        E09E10E11E12E13E14E15E18E19E21E24E25E26E27E29E30E31
+        E33E34E36G02G03G04G05G06G07G08G09G10G11G12G13G14G15
+        G16G17G18G19G20G21G22G23G24G25G26G27G28G29G30G31G32
+        J02J03J04J07R01R02R03R04R05R06R07R08R09R10R11R12R13
+        R14R15R16R17R18R19R20R21R22R23R24R26  0  0  0  0  0
++        16 16 16 16 16  9  9  9  9  9  9  9  9  9  9  7  7
++         7  7  7  7  7  7  7  7  7  7  7  7  7  7  7  7  8
++         8  8  7  7  7  7  7  0 16 16  4  4  4  4  4  4  4
++         4  4  4  4  4  4  4  4  4  4  5  5  4  4  4  4  4
++         4  4  4  4  4  4  3  3  3  3  4  4  4  4  3  4  3
++         4  4  4  4  4  4  4  4  4  4  4  4  4  4  3  4  3
++        10 10 10 16  7  6  6  6  6 14  6  6  6 14  6  6 13
++         6  6  6  6  6  8  7  6  6 13  6  8  0  0  0  0  0
%c M  cc GPS ccc cccc cccc cccc cccc ccccc ccccc ccccc ccccc
%c cc cc ccc ccc cccc cccc cccc cccc ccccc ccccc ccccc ccccc
%f  0.0000000  0.000000000  0.00000000000  0.000000000000000
%f  0.0000000  0.000000000  0.00000000000  0.000000000000000
%i    0    0    0    0      0      0      0      0         0
%i    0    0    0    0      0      0      0      0         0
/* INFORMATION & ANALYSIS CENTER (IAC)            RAPID DATA
/* S/V CLOCKS ARE ALIGNED TO GNSS TIME                      
/* G:C1WC2W R:C1PC2P E:C1XC5X C:C2IC6I J:C1CC2S             
/* PCV:IGS20_2317 OL/AL:FES2004  NONE     YN ORB:CoN CLK:CoN
*  2024 11 05  6 15  0.00000000
PC01 -34329.469224  24444.069268   -641.485737   -376.105419
PC02   4386.916413  41941.541417   1268.439678    805.308067
PC03 -14775.045419  39521.027574    -60.427681    825.536112
PC04 -39587.134682  14403.800284  -1202.016421   -484.092805
PC05  21958.731131  35976.933356   1229.536739   -236.005489
PC06  -2799.564409  25959.045512  33240.176936    401.685096
PC07 -17337.371837  34305.489881 -17466.112902   -230.276041
PC08  -5161.734623  39570.552160 -13221.919937   -748.880109
PC09   4337.080473  28929.668829  31083.515655   -583.474511
PC10 -10837.095222  34285.800516 -22074.635812   -265.805984
PC11  -6676.925352 -15638.544231  22206.695714    227.655815
PC12  14927.571271 -12242.500330  20196.003761   -252.205211
PC13   -401.807599  41468.897079  -6441.102364     91.479644
PC14   1575.762763 -22395.141402 -16540.030321   -392.353691
PC16  -7455.730550  23464.823854  34568.579216    127.616673
PC19   6339.540467  16514.621638  21602.618398   -959.620178
PC20  -8124.163472  24589.850879  10429.376882   -915.841533
PC21  19186.802748 -18461.019609   8328.348543   -916.784132
PC22  18147.849713  -1563.696135  21123.527134    171.068184
PC23 -19180.101629 -10451.070179  17372.950776   -877.013513
PC24     43.109910 -23783.653057 -14640.321690    776.691077
PC25 -14085.563445 -24035.240906   1826.942886    552.329836
PC26  13213.529155  -9812.242415 -22560.784268   -372.787032
PC27 -22734.918875   8224.278922 -13948.021488    392.023747
PC28 -27799.383747  -2401.253225    576.633819    304.928095
PC29  16162.941606  13490.240331 -18315.890394    358.031608
PC30  -5735.779101  15669.732260 -22368.951261     18.735362
PC32 -19075.128843  18544.254834  -8435.159946   -791.566216
PC33  -6397.084319 -16548.997649 -21542.529407   -952.656382
PC34   3711.084123 -15949.517299  22588.930680    557.588771
PC35  27838.878971   1802.961984  -1238.786458    216.602067
PC36  13780.308558  24149.945065  -2251.778798    215.798444
PC37 -13580.551569   9226.187315  22567.075066   -892.879937
PC38  -9078.490909  36237.656637 -19336.489778    189.411536
PC39 -10935.149048  21503.653804  34639.690210    -10.265238
PC40 -24986.403437  29267.854636 -17555.884581   -100.735215
PC41 -17787.313020    646.688585 -21449.855202   -892.371350
PC42   9480.372203 -24742.634665  -8680.452529   -508.277658
PC43 -15185.997708 -13934.995266  18799.656824     91.218745
PC44  22533.125507  -9106.848908  13725.744011    643.168560
PC45  19045.442726  11059.684346 -17129.320011   -161.376602
PC59      0.000000      0.000000      0.000000 999999.999999
PC60   7322.433252  41507.483639   -145.847773      0.420292
PC62 -39656.196792  14357.363389    232.930978      0.161909
PE02  16932.338523 -11139.070713 -21583.871715    172.363949
PE03  27795.290511 -10122.033513    930.846225   -151.441181
PE04 -15642.564208  18665.681112  16823.142673    -74.591003
PE05  23323.966447   4184.660472  17734.436727   4799.037432
PE06  -5383.663102  18861.020352  22145.930052    -43.972334
PE07  -4842.932885 -16256.910695 -24260.675641   -151.158726
PE08  16396.507399 -18442.586588 -16349.170015   -362.841933
PE09   4684.095347  16157.754120  24348.089845   -651.921717
PE10   4954.594966  20854.039291 -20406.453512   -667.831478
PE11  14612.575104  22417.198199 -12661.500358    929.736324
PE12  -4280.863219  16611.820192 -24120.211034  -1281.803549
PE13 -14162.212566 -22398.399795  13198.229017    -26.478199
PE14  20658.760285 -10980.073617   2764.173825    351.057282
PE15   4950.838404 -16111.952243  24344.099018   -137.277475
PE18 -25456.259102  18102.014090  -8932.825223    737.653411
PE19 -28142.019981   8753.268838  -2733.239619    886.119029
PE21 -14638.680255 -10813.983889  23344.670508   -626.524554
PE24   3577.561059  27109.606658 -11318.045544  -1082.116886
PE25  14472.731680  11288.495154 -23216.054358     10.891920
PE26 -24757.354058 -15130.969658  -5868.871530   -220.588171
PE27  -3662.186723 -27086.224418  11379.970433   -496.034056
PE29 -23594.330762  -4078.907064 -17403.137723    -43.200714
PE30   9382.151099 -27182.084323  -7065.500853   -892.690433
PE31  -9335.328914  27162.680149   7148.521015    -41.795951
PE33 -21091.076215     59.771628 -20764.170937     16.043403
PE34  20838.204151   -514.877984  21012.849491   -144.126803
PE36  24634.469041  15490.486396   5431.399843   -306.812028
PG02  22886.943709  13796.770868   -779.681534   -321.595733
PG03  12478.785241  11399.831130  20352.043719    591.136810
PG04  20601.735535   3567.074324  16481.604143    474.078560
PG05  -5950.591268 -23914.742962 -10001.147365   -192.023028
PG06   7105.510681 -12856.948858  22194.659081    -90.737296
PG07  22446.056384   3840.009426 -13502.455609    -22.165192
PG08  11182.435650  11411.364808 -21387.422331    404.894352
PG09  24471.101305  -5399.003562   8804.039797    429.677692
PG10 -10303.398619  20500.949857 -12854.730300   -184.052905
PG11  -6881.720220 -19670.861156  16538.415659   -748.539377
PG12 -10394.519010 -16002.950125  18208.476750   -549.971206
PG13  -1618.209696 -15173.051738 -21954.043019    684.673769
PG14  12993.598121 -17126.747262 -15401.516245    533.020725
PG15 -12775.181021 -10344.704202 -21406.095819    224.049189
PG16    168.917880  25607.188560  -6430.678985   -136.513803
PG17  21616.114074 -14030.495712   7239.563351    570.442652
PG18 -21338.461667  -2206.801172 -15780.451558   -659.850670
PG19  14396.299588 -16066.765337  15056.769446    559.034562
PG20   -912.014421 -26530.015042   2320.467999    369.020494
PG21  20173.198258  16713.649970  -6626.835286     98.194448
PG22   9856.018010 -23313.355488  -8147.402108    -76.944707
PG23 -14430.854676   7424.674465 -20939.586145    356.645645
PG24 -21615.532495 -15405.555288  -4009.323963   -481.909816
PG25 -15215.483822  -1568.148551  21369.391603    499.205614
PG26  -4617.388738  25141.671687   6261.167286     36.916560
PG27   -733.485605  16621.611701 -20907.056075    -34.745777
PG28  -9059.637604  12227.962689  21753.600308   -469.036236
PG29 -24654.380799   2250.826787   9748.974071   -566.148781
PG30  16160.636685  -6676.915367 -19914.588041   -288.328137
PG31   1894.255525  18053.074274  19016.523204   -222.291258
PG32 -19034.316734  16152.843888   8980.063418   -577.965983
PJ02 -31158.796757  26529.208027  15563.176109      0.455877
PJ03 -26082.507171  16717.288252 -23934.755708     -6.000593
PJ04 -25846.678776  33209.977097    966.016192     21.755294
PJ07 -25392.020753  33653.238028     38.554236      0.011072
PR01 -13719.228863    -83.429855 -21509.247409    103.388729
PR02 -19461.847922  13211.112351  -9734.016531    -25.508949
PR03 -14111.283799  19752.293045   7764.919065    110.773622
PR04  -1640.019531  15086.550169  20519.677549    262.535536
PR05  11973.420023   2602.333490  22382.987300    140.220816
PR06  18942.830235 -14833.379282   8496.160776   -187.581649
PR07  13978.962786 -19775.382989  -8070.864230     94.347135
PR08   1307.444595 -15070.396279 -20497.009215     -6.314046
PR09  10491.630358  -4322.038556 -22825.598400    218.731616
PR10   3157.076243 -18445.407478 -17386.686882   -239.902463
PR11  -6555.628485 -24597.000208  -1480.478928      7.608131
PR12 -12587.336732 -14627.970352  16710.155774     46.869809
PR13 -11098.149829   1335.327756  22912.926733    -53.177657
PR14  -2108.247273  19846.449387  15907.142346     27.166489
PR15   7222.594195  24466.644833   -270.176166     74.413702
PR16  12505.365565  14810.049394 -16594.318362     30.531701
PR17  -7359.131475   8886.321114 -22738.994976    137.057340
PR18  10174.276707  12163.978445 -19971.176984    170.345857
PR19  21404.298248  10694.968217  -8817.118988   -297.357966
PR20  22326.087495   1114.001401  12333.673207   -121.490341
PR21   8311.181475  -8417.186343  22601.779449   -148.676492
PR22 -10929.762519 -12763.411336  19220.153523     -0.352176
PR23 -22932.495757  -9325.035349   6156.759335   -137.624182
PR24 -22179.324041    456.815668 -12588.045519    -78.860339
PR26   2605.599246 -15975.191713 -19692.997876   -118.525476
EOF
